STARLINK-30251          
1 57532U 23115M   26067.83471449  .00001905  00000+0  80691-4 0  9997
2 57532  43.0011   6.1686 0001006 298.1512  61.9237 15.26742221142226
FLOCK 4G-18             
1 62680U 25009BZ  26068.19114186  .00011766  00000+0  44319-3 0  9995
2 62680  97.4054 150.5008 0004100 335.7331  24.3715 15.27241676121267
